start=new Date('2023-01-06T00:00:00.000Z').valueOf();
sats=[{"RCS_SIZE":"LARGE","CLASSIFICATION_TYPE":"U","BSTAR":"0.00002114800000","ELEMENT_SET_NO":"999","CENTER_NAME":"EARTH","REF_FRAME":"TEME","GP_ID":"222285603","OBJECT_TYPE":"PAYLOAD","EPHEMERIS_TYPE":"0","MEAN_MOTION":"15.06408617","APOAPSIS":"548.292","COUNTRY_CODE":"US","ECCENTRICITY":"0.00015960","PERIOD":"95.592","PERIAPSIS":"546.082","EPOCH":"2023-01-05T19:55:07.763808","MEAN_ELEMENT_THEORY":"SGP4","DECAY_DATE":null,"SEMIMAJOR_AXIS":"6925.322","LAUNCH_DATE":"2020-09-03","RA_OF_ASC_NODE":"158.9511","OBJECT_NAME":"STARLINK-1758","MEAN_ANOMALY":"292.8533","NORAD_CAT_ID":"46380","MEAN_MOTION_DOT":"0.00000034","SITE":"AFETR","TLE_LINE1":"1 46380U 20062BH  23005.82995097  .00000034  00000-0  21148-4 0  9997","MEAN_MOTION_DDOT":"0.0000000000000","INCLINATION":"53.0533","TLE_LINE2":"2 46380  53.0533 158.9511 0001596  67.2624 292.8533 15.06408617129923","TIME_SYSTEM":"UTC","ARG_OF_PERICENTER":"67.2624","FILE":"3732963","REV_AT_EPOCH":"12992","OBJECT_ID":"2020-062BH"},{"INCLINATION":"53.0544","TLE_LINE2":"2 46382  53.0544 134.9248 0001763  52.8815 307.2335 15.06407814130242","TIME_SYSTEM":"UTC","FILE":"3732963","ARG_OF_PERICENTER":"52.8815","REV_AT_EPOCH":"13024","OBJECT_ID":"2020-062BK","SEMIMAJOR_AXIS":"6925.325","LAUNCH_DATE":"2020-09-03","RA_OF_ASC_NODE":"134.9248","OBJECT_NAME":"STARLINK-1769","MEAN_ANOMALY":"307.2335","MEAN_ELEMENT_THEORY":"SGP4","EPOCH":"2023-01-05T14:42:37.735200","DECAY_DATE":null,"SITE":"AFETR","TLE_LINE1":"1 46382U 20062BK  23005.61293675  .00002409  00000-0  18052-3 0  9996","MEAN_MOTION_DDOT":"0.0000000000000","NORAD_CAT_ID":"46382","MEAN_MOTION_DOT":"0.00002409","MEAN_MOTION":"15.06407814","APOAPSIS":"548.411","COUNTRY_CODE":"US","EPHEMERIS_TYPE":"0","OBJECT_TYPE":"PAYLOAD","PERIOD":"95.592","PERIAPSIS":"545.969","ECCENTRICITY":"0.00017630","RCS_SIZE":"LARGE","CLASSIFICATION_TYPE":"U","GP_ID":"222286354","ELEMENT_SET_NO":"999","BSTAR":"0.00018052000000","CENTER_NAME":"EARTH","REF_FRAME":"TEME"},{"MEAN_ANOMALY":"292.6425","OBJECT_NAME":"STARLINK-1770","LAUNCH_DATE":"2020-09-03","SEMIMAJOR_AXIS":"6925.355","RA_OF_ASC_NODE":"179.9871","DECAY_DATE":null,"EPOCH":"2023-01-05T14:23:25.959264","MEAN_ELEMENT_THEORY":"SGP4","MEAN_MOTION_DDOT":"0.0000000000000","TLE_LINE1":"1 46383U 20062BL  23005.59960601  .00002580  00000-0  19208-3 0  9998","SITE":"AFETR","MEAN_MOTION_DOT":"0.00002580","NORAD_CAT_ID":"46383","TLE_LINE2":"2 46383  53.0533 179.9871 0001606  67.4734 292.6425 15.06397879129604","INCLINATION":"53.0533","OBJECT_ID":"2020-062BL","REV_AT_EPOCH":"12960","ARG_OF_PERICENTER":"67.4734","FILE":"3732963","TIME_SYSTEM":"UTC","CLASSIFICATION_TYPE":"U","RCS_SIZE":"LARGE","GP_ID":"222286599","REF_FRAME":"TEME","CENTER_NAME":"EARTH","ELEMENT_SET_NO":"999","BSTAR":"0.00019208000000","COUNTRY_CODE":"US","APOAPSIS":"548.332","MEAN_MOTION":"15.06397879","EPHEMERIS_TYPE":"0","OBJECT_TYPE":"PAYLOAD","PERIAPSIS":"546.108","PERIOD":"95.592","ECCENTRICITY":"0.00016060"},{"OBJECT_NAME":"STARLINK-1771","RA_OF_ASC_NODE":"179.3551","LAUNCH_DATE":"2020-09-03","SEMIMAJOR_AXIS":"6925.347","MEAN_ANOMALY":"257.2953","DECAY_DATE":null,"EPOCH":"2023-01-05T17:39:48.725568","MEAN_ELEMENT_THEORY":"SGP4","SITE":"AFETR","MEAN_MOTION_DDOT":"0.0000000000000","TLE_LINE1":"1 46384U 20062BM  23005.73598062  .00002177  00000-0  16498-3 0  9993","NORAD_CAT_ID":"46384","MEAN_MOTION_DOT":"0.00002177","TLE_LINE2":"2 46384  53.0536 179.3551 0001433 102.8196 257.2953 15.06400470129628","INCLINATION":"53.0536","ARG_OF_PERICENTER":"102.8196","FILE":"3732963","TIME_SYSTEM":"UTC","OBJECT_ID":"2020-062BM","REV_AT_EPOCH":"12962","RCS_SIZE":"LARGE","CLASSIFICATION_TYPE":"U","GP_ID":"222285854","BSTAR":"0.00016498000000","ELEMENT_SET_NO":"999","REF_FRAME":"TEME","CENTER_NAME":"EARTH","APOAPSIS":"548.205","MEAN_MOTION":"15.06400470","COUNTRY_CODE":"US","EPHEMERIS_TYPE":"0","OBJECT_TYPE":"PAYLOAD","PERIAPSIS":"546.220","PERIOD":"95.592","ECCENTRICITY":"0.00014330"},{"MEAN_MOTION":"15.06421875","APOAPSIS":"548.761","COUNTRY_CODE":"US","EPHEMERIS_TYPE":"0","OBJECT_TYPE":"PAYLOAD","PERIOD":"95.591","PERIAPSIS":"545.532","ECCENTRICITY":"0.00023320","RCS_SIZE":"LARGE","CLASSIFICATION_TYPE":"U","GP_ID":"222259665","ELEMENT_SET_NO":"999","BSTAR":"0.00043755000000","CENTER_NAME":"EARTH","REF_FRAME":"TEME","INCLINATION":"53.0561","TLE_LINE2":"2 46532  53.0561 341.1624 0002332  36.7709 323.3440 15.06421875124763","TIME_SYSTEM":"UTC","FILE":"3732939","ARG_OF_PERICENTER":"36.7709","REV_AT_EPOCH":"12476","OBJECT_ID":"2020-070A","SEMIMAJOR_AXIS":"6925.282","LAUNCH_DATE":"2020-10-06","RA_OF_ASC_NODE":"341.1624","OBJECT_NAME":"STARLINK-1644","MEAN_ANOMALY":"323.3440","MEAN_ELEMENT_THEORY":"SGP4","EPOCH":"2023-01-05T08:06:33.138720","DECAY_DATE":null,"SITE":"AFETR","TLE_LINE1":"1 46532U 20070A   23005.33788355  .00006245  00000-0  43755-3 0  9995","MEAN_MOTION_DDOT":"0.0000000000000","NORAD_CAT_ID":"46532","MEAN_MOTION_DOT":"0.00006245"},{"EPHEMERIS_TYPE":"0","OBJECT_TYPE":"PAYLOAD","MEAN_MOTION":"15.06423296","APOAPSIS":"548.615","COUNTRY_CODE":"US","ECCENTRICITY":"0.00021270","PERIOD":"95.591","PERIAPSIS":"545.669","RCS_SIZE":"LARGE","CLASSIFICATION_TYPE":"U","ELEMENT_SET_NO":"999","BSTAR":"0.00045054000000","CENTER_NAME":"EARTH","REF_FRAME":"TEME","GP_ID":"222285368","INCLINATION":"53.0557","TLE_LINE2":"2 46533  53.0557 339.9070 0002127  46.4672 313.6493 15.06423296124802","TIME_SYSTEM":"UTC","FILE":"3732963","ARG_OF_PERICENTER":"46.4672","REV_AT_EPOCH":"12480","OBJECT_ID":"2020-070B","EPOCH":"2023-01-05T14:44:37.534848","MEAN_ELEMENT_THEORY":"SGP4","DECAY_DATE":null,"LAUNCH_DATE":"2020-10-06","RA_OF_ASC_NODE":"339.9070","SEMIMAJOR_AXIS":"6925.277","OBJECT_NAME":"STARLINK-1648","MEAN_ANOMALY":"313.6493","NORAD_CAT_ID":"46533","MEAN_MOTION_DOT":"0.00006440","SITE":"AFETR","TLE_LINE1":"1 46533U 20070B   23005.61432332  .00006440  00000-0  45054-3 0  9999","MEAN_MOTION_DDOT":"0.0000000000000"},{"DECAY_DATE":null,"EPOCH":"2023-01-05T07:55:56.092512","MEAN_ELEMENT_THEORY":"SGP4","OBJECT_NAME":"STARLINK-1659","LAUNCH_DATE":"2020-10-06","SEMIMAJOR_AXIS":"6925.259","RA_OF_ASC_NODE":"341.1901","MEAN_ANOMALY":"319.5911","NORAD_CAT_ID":"46534","MEAN_MOTION_DOT":"0.00010940","SITE":"AFETR","MEAN_MOTION_DDOT":"0.0000000000000","TLE_LINE1":"1 46534U 20070C   23005.33051033  .00010940  00000-0  75157-3 0  9991","TLE_LINE2":"2 46534  53.0552 341.1901 0002617  40.5272 319.5911 15.06429063124764","INCLINATION":"53.0552","ARG_OF_PERICENTER":"40.5272","FILE":"3732939","TIME_SYSTEM":"UTC","OBJECT_ID":"2020-070C","REV_AT_EPOCH":"12476","RCS_SIZE":"LARGE","CLASSIFICATION_TYPE":"U","BSTAR":"0.00075157000000","ELEMENT_SET_NO":"999","REF_FRAME":"TEME","CENTER_NAME":"EARTH","GP_ID":"222260663","OBJECT_TYPE":"PAYLOAD","EPHEMERIS_TYPE":"0","APOAPSIS":"548.937","MEAN_MOTION":"15.06429063","COUNTRY_CODE":"US","ECCENTRICITY":"0.00026170","PERIAPSIS":"545.312","PERIOD":"95.590"},{"RCS_SIZE":"LARGE","CLASSIFICATION_TYPE":"U","ELEMENT_SET_NO":"999","BSTAR":"0.00038900000000","CENTER_NAME":"EARTH","REF_FRAME":"TEME","GP_ID":"222286368","OBJECT_TYPE":"PAYLOAD","EPHEMERIS_TYPE":"0","MEAN_MOTION":"15.06429435","APOAPSIS":"548.845","COUNTRY_CODE":"US","ECCENTRICITY":"0.00024860","PERIOD":"95.590","PERIAPSIS":"545.402","MEAN_ELEMENT_THEORY":"SGP4","EPOCH":"2023-01-05T15:37:42.409056","DECAY_DATE":null,"SEMIMAJOR_AXIS":"6925.258","LAUNCH_DATE":"2020-10-06","RA_OF_ASC_NODE":"339.7507","OBJECT_NAME":"STARLINK-1663","MEAN_ANOMALY":"318.8835","NORAD_CAT_ID":"46535","MEAN_MOTION_DOT":"0.00005522","SITE":"AFETR","TLE_LINE1":"1 46535U 20070D   23005.65118529  .00005522  00000-0  38900-3 0  9996","MEAN_MOTION_DDOT":"0.0000000000000","INCLINATION":"53.0537","TLE_LINE2":"2 46535  53.0537 339.7507 0002486  41.2342 318.8835 15.06429435124808","TIME_SYSTEM":"UTC","ARG_OF_PERICENTER":"41.2342","FILE":"3732963","REV_AT_EPOCH":"12480","OBJECT_ID":"2020-070D"},{"OBJECT_ID":"2020-070F","REV_AT_EPOCH":"12474","FILE":"3732939","ARG_OF_PERICENTER":"55.6945","TIME_SYSTEM":"UTC","TLE_LINE2":"2 46537  53.0552 341.7258 0002018  55.6945 304.4235 15.06419073124747","INCLINATION":"53.0552","MEAN_MOTION_DDOT":"0.0000000000000","TLE_LINE1":"1 46537U 20070F   23005.21256265  .00007483  00000-0  52048-3 0  9997","SITE":"AFETR","MEAN_MOTION_DOT":"0.00007483","NORAD_CAT_ID":"46537","MEAN_ANOMALY":"304.4235","OBJECT_NAME":"STARLINK-1672","LAUNCH_DATE":"2020-10-06","SEMIMAJOR_AXIS":"6925.290","RA_OF_ASC_NODE":"341.7258","DECAY_DATE":null,"MEAN_ELEMENT_THEORY":"SGP4","EPOCH":"2023-01-05T05:06:05.412960","PERIAPSIS":"545.758","PERIOD":"95.591","ECCENTRICITY":"0.00020180","COUNTRY_CODE":"US","APOAPSIS":"548.553","MEAN_MOTION":"15.06419073","OBJECT_TYPE":"PAYLOAD","EPHEMERIS_TYPE":"0","GP_ID":"222259165","REF_FRAME":"TEME","CENTER_NAME":"EARTH","ELEMENT_SET_NO":"999","BSTAR":"0.00052048000000","CLASSIFICATION_TYPE":"U","RCS_SIZE":"LARGE"},{"PERIOD":"95.591","PERIAPSIS":"545.543","ECCENTRICITY":"0.00023100","MEAN_MOTION":"15.06423064","APOAPSIS":"548.743","COUNTRY_CODE":"US","OBJECT_TYPE":"PAYLOAD","EPHEMERIS_TYPE":"0","GP_ID":"222285868","ELEMENT_SET_NO":"999","BSTAR":"0.00054047000000","CENTER_NAME":"EARTH","REF_FRAME":"TEME","RCS_SIZE":"LARGE","CLASSIFICATION_TYPE":"U","TIME_SYSTEM":"UTC","ARG_OF_PERICENTER":"38.1803","FILE":"3732963","REV_AT_EPOCH":"12480","OBJECT_ID":"2020-070G","INCLINATION":"53.0552","TLE_LINE2":"2 46538  53.0552 339.7323 0002310  38.1803 321.9349 15.06423064124804","SITE":"AFETR","TLE_LINE1":"1 46538U 20070G   23005.65486829  .00007783  00000-0  54047-3 0  9991","MEAN_MOTION_DDOT":"0.0000000000000","NORAD_CAT_ID":"46538","MEAN_MOTION_DOT":"0.00007783","LAUNCH_DATE":"2020-10-06","SEMIMAJOR_AXIS":"6925.278","RA_OF_ASC_NODE":"339.7323","OBJECT_NAME":"STARLINK-1678","MEAN_ANOMALY":"321.9349","MEAN_ELEMENT_THEORY":"SGP4","EPOCH":"2023-01-05T15:43:00.620256","DECAY_DATE":null}];
